SKYSAT-A                
1 39418U 13066C   26195.70286264  .00001499  00000+0  87889-4 0  9995
2 39418  97.3805 244.2233 0020428 215.2289 144.7594 15.13113646692646
SKYSAT-B                
1 40072U 14037D   26195.89618555  .00000603  00000+0  72253-4 0  9999
2 40072  98.3853 156.4444 0005536 173.5386 186.5901 14.88091619650087
SKYSAT-C1               
1 41601U 16040C   26195.63369731  .00005168  00000+0  14606-3 0  9993
2 41601  96.9549 225.8712 0000317 324.3548  35.7676 15.36741961562081
SKYSAT-C4               
1 41771U 16058B   26195.59325766  .00010646  00000+0  19537-3 0  9990
2 41771  96.9161 216.2317 0003440 118.7398 241.4200 15.49423800549719
SKYSAT-C5               
1 41772U 16058C   26195.68933508  .00004205  00000+0  13127-3 0  9993
2 41772  97.0455 235.0967 0002493 161.8112 198.3222 15.33714814547968
SKYSAT-C2               
1 41773U 16058D   26195.96196732  .00007086  00000+0  16442-3 0  9998
2 41773  97.0155 217.0212 0001539 355.1441   4.9792 15.42676894549334
SKYSAT-C3               
1 41774U 16058E   26195.65458624  .00014766  00000+0  23229-3 0  9990
2 41774  96.8992 225.4634 0002490 132.7023 227.4442 15.53690773550378
SKYSAT-C11              
1 42987U 17068A   26195.92089592  .00017756  00000+0  22688-3 0  9993
2 42987  97.4376 345.9931 0001164 159.2858 200.8445 15.59313204487568
SKYSAT-C10              
1 42988U 17068B   26195.86940480  .00006119  00000+0  18199-3 0  9992
2 42988  97.4538 332.9997 0001427 107.6386 252.5013 15.35112497486606
SKYSAT-C9               
1 42989U 17068C   26195.88519892  .00007445  00000+0  17532-3 0  9997
2 42989  97.4457 334.2191 0008692  45.8055 314.3904 15.42209004487027
SKYSAT-C8               
1 42990U 17068D   26195.34261580  .00006159  00000+0  16986-3 0  9991
2 42990  97.4553 332.3717 0001229 102.6122 257.5260 15.37480933486483
SKYSAT-C7               
1 42991U 17068E   26195.92284226  .00005868  00000+0  16211-3 0  9995
2 42991  97.4566 333.9519 0005758  22.1951 337.9541 15.37438463486635
SKYSAT-C6               
1 42992U 17068F   26195.34510753  .00005312  00000+0  16309-3 0  9991
2 42992  97.4602 333.2232 0005141  91.5369 268.6463 15.34160841486486
SKYSAT-C12              
1 43797U 18099AR  26195.93109991  .00010982  00000+0  19893-3 0  9993
2 43797  96.9251 218.0668 0005366  70.8849 289.2984 15.49780752426159
