{"fetched_at":"2026-07-15T06:35:37.596Z","source":"https://celestrak.org/NORAD/elements/gp.php?GROUP=planet&FORMAT=JSON","constellation":"skysat","records":[{"OBJECT_NAME":"SKYSAT-A","OBJECT_ID":"2013-066C","EPOCH":"2026-07-14T16:52:07.332096","CLASSIFICATION_TYPE":"U","MEAN_MOTION":15.13113646,"ECCENTRICITY":0.00204289,"INCLINATION":97.3805,"RA_OF_ASC_NODE":244.2233,"ARG_OF_PERICENTER":215.2289,"MEAN_ANOMALY":144.7594,"EPHEMERIS_TYPE":0,"NORAD_CAT_ID":39418,"ELEMENT_SET_NO":999,"REV_AT_EPOCH":69264,"BSTAR":0.000087888726,"MEAN_MOTION_DOT":0.00001499,"MEAN_MOTION_DDOT":0},{"OBJECT_NAME":"SKYSAT-B","OBJECT_ID":"2014-037D","EPOCH":"2026-07-14T21:30:30.431520","CLASSIFICATION_TYPE":"U","MEAN_MOTION":14.88091619,"ECCENTRICITY":0.00055364,"INCLINATION":98.3853,"RA_OF_ASC_NODE":156.4444,"ARG_OF_PERICENTER":173.5386,"MEAN_ANOMALY":186.5901,"EPHEMERIS_TYPE":0,"NORAD_CAT_ID":40072,"ELEMENT_SET_NO":999,"REV_AT_EPOCH":65008,"BSTAR":0.000072252759,"MEAN_MOTION_DOT":0.00000603,"MEAN_MOTION_DDOT":0},{"OBJECT_NAME":"SKYSAT-C1","OBJECT_ID":"2016-040C","EPOCH":"2026-07-14T15:12:31.447584","CLASSIFICATION_TYPE":"U","MEAN_MOTION":15.36741961,"ECCENTRICITY":0.00003178,"INCLINATION":96.9549,"RA_OF_ASC_NODE":225.8712,"ARG_OF_PERICENTER":324.3548,"MEAN_ANOMALY":35.7676,"EPHEMERIS_TYPE":0,"NORAD_CAT_ID":41601,"ELEMENT_SET_NO":999,"REV_AT_EPOCH":56208,"BSTAR":0.00014606466,"MEAN_MOTION_DOT":0.00005168,"MEAN_MOTION_DDOT":0},{"OBJECT_NAME":"SKYSAT-C4","OBJECT_ID":"2016-058B","EPOCH":"2026-07-14T14:14:17.461824","CLASSIFICATION_TYPE":"U","MEAN_MOTION":15.494238,"ECCENTRICITY":0.000344,"INCLINATION":96.9161,"RA_OF_ASC_NODE":216.2317,"ARG_OF_PERICENTER":118.7398,"MEAN_ANOMALY":241.42,"EPHEMERIS_TYPE":0,"NORAD_CAT_ID":41771,"ELEMENT_SET_NO":999,"REV_AT_EPOCH":54971,"BSTAR":0.00019537,"MEAN_MOTION_DOT":0.00010646,"MEAN_MOTION_DDOT":0},{"OBJECT_NAME":"SKYSAT-C5","OBJECT_ID":"2016-058C","EPOCH":"2026-07-14T16:32:38.550912","CLASSIFICATION_TYPE":"U","MEAN_MOTION":15.33714814,"ECCENTRICITY":0.00024931,"INCLINATION":97.0455,"RA_OF_ASC_NODE":235.0967,"ARG_OF_PERICENTER":161.8112,"MEAN_ANOMALY":198.3222,"EPHEMERIS_TYPE":0,"NORAD_CAT_ID":41772,"ELEMENT_SET_NO":999,"REV_AT_EPOCH":54796,"BSTAR":0.00013126712,"MEAN_MOTION_DOT":0.00004205,"MEAN_MOTION_DDOT":0},{"OBJECT_NAME":"SKYSAT-C2","OBJECT_ID":"2016-058D","EPOCH":"2026-07-14T23:05:13.976448","CLASSIFICATION_TYPE":"U","MEAN_MOTION":15.42676894,"ECCENTRICITY":0.00015394,"INCLINATION":97.0155,"RA_OF_ASC_NODE":217.0212,"ARG_OF_PERICENTER":355.1441,"MEAN_ANOMALY":4.9792,"EPHEMERIS_TYPE":0,"NORAD_CAT_ID":41773,"ELEMENT_SET_NO":999,"REV_AT_EPOCH":54933,"BSTAR":0.0001644216,"MEAN_MOTION_DOT":0.00007086,"MEAN_MOTION_DDOT":0},{"OBJECT_NAME":"SKYSAT-C3","OBJECT_ID":"2016-058E","EPOCH":"2026-07-14T15:42:36.251136","CLASSIFICATION_TYPE":"U","MEAN_MOTION":15.53690773,"ECCENTRICITY":0.00024903,"INCLINATION":96.8992,"RA_OF_ASC_NODE":225.4634,"ARG_OF_PERICENTER":132.7023,"MEAN_ANOMALY":227.4442,"EPHEMERIS_TYPE":0,"NORAD_CAT_ID":41774,"ELEMENT_SET_NO":999,"REV_AT_EPOCH":55037,"BSTAR":0.00023228821,"MEAN_MOTION_DOT":0.00014766,"MEAN_MOTION_DDOT":0},{"OBJECT_NAME":"SKYSAT-C11","OBJECT_ID":"2017-068A","EPOCH":"2026-07-14T22:06:05.407488","CLASSIFICATION_TYPE":"U","MEAN_MOTION":15.59313204,"ECCENTRICITY":0.00011649,"INCLINATION":97.4376,"RA_OF_ASC_NODE":345.9931,"ARG_OF_PERICENTER":159.2858,"MEAN_ANOMALY":200.8445,"EPHEMERIS_TYPE":0,"NORAD_CAT_ID":42987,"ELEMENT_SET_NO":999,"REV_AT_EPOCH":48756,"BSTAR":0.00022687717,"MEAN_MOTION_DOT":0.00017756,"MEAN_MOTION_DDOT":0},{"OBJECT_NAME":"SKYSAT-C10","OBJECT_ID":"2017-068B","EPOCH":"2026-07-14T20:51:56.574720","CLASSIFICATION_TYPE":"U","MEAN_MOTION":15.35112497,"ECCENTRICITY":0.00014276,"INCLINATION":97.4538,"RA_OF_ASC_NODE":332.9997,"ARG_OF_PERICENTER":107.6386,"MEAN_ANOMALY":252.5013,"EPHEMERIS_TYPE":0,"NORAD_CAT_ID":42988,"ELEMENT_SET_NO":999,"REV_AT_EPOCH":48660,"BSTAR":0.00018198915,"MEAN_MOTION_DOT":0.00006119,"MEAN_MOTION_DDOT":0},{"OBJECT_NAME":"SKYSAT-C9","OBJECT_ID":"2017-068C","EPOCH":"2026-07-14T21:14:41.186688","CLASSIFICATION_TYPE":"U","MEAN_MOTION":15.42209004,"ECCENTRICITY":0.00086925,"INCLINATION":97.4457,"RA_OF_ASC_NODE":334.2191,"ARG_OF_PERICENTER":45.8055,"MEAN_ANOMALY":314.3904,"EPHEMERIS_TYPE":0,"NORAD_CAT_ID":42989,"ELEMENT_SET_NO":999,"REV_AT_EPOCH":48702,"BSTAR":0.00017532232,"MEAN_MOTION_DOT":0.00007445,"MEAN_MOTION_DDOT":0},{"OBJECT_NAME":"SKYSAT-C8","OBJECT_ID":"2017-068D","EPOCH":"2026-07-14T08:13:22.005120","CLASSIFICATION_TYPE":"U","MEAN_MOTION":15.37480933,"ECCENTRICITY":0.00012294,"INCLINATION":97.4553,"RA_OF_ASC_NODE":332.3717,"ARG_OF_PERICENTER":102.6122,"MEAN_ANOMALY":257.526,"EPHEMERIS_TYPE":0,"NORAD_CAT_ID":42990,"ELEMENT_SET_NO":999,"REV_AT_EPOCH":48648,"BSTAR":0.00016985915,"MEAN_MOTION_DOT":0.00006159,"MEAN_MOTION_DDOT":0},{"OBJECT_NAME":"SKYSAT-C7","OBJECT_ID":"2017-068E","EPOCH":"2026-07-14T22:08:53.571264","CLASSIFICATION_TYPE":"U","MEAN_MOTION":15.37438463,"ECCENTRICITY":0.00057581,"INCLINATION":97.4566,"RA_OF_ASC_NODE":333.9519,"ARG_OF_PERICENTER":22.1951,"MEAN_ANOMALY":337.9541,"EPHEMERIS_TYPE":0,"NORAD_CAT_ID":42991,"ELEMENT_SET_NO":999,"REV_AT_EPOCH":48663,"BSTAR":0.0001621063,"MEAN_MOTION_DOT":0.00005868,"MEAN_MOTION_DDOT":0},{"OBJECT_NAME":"SKYSAT-C6","OBJECT_ID":"2017-068F","EPOCH":"2026-07-14T08:16:57.290592","CLASSIFICATION_TYPE":"U","MEAN_MOTION":15.34160841,"ECCENTRICITY":0.00051416,"INCLINATION":97.4602,"RA_OF_ASC_NODE":333.2232,"ARG_OF_PERICENTER":91.5369,"MEAN_ANOMALY":268.6463,"EPHEMERIS_TYPE":0,"NORAD_CAT_ID":42992,"ELEMENT_SET_NO":999,"REV_AT_EPOCH":48648,"BSTAR":0.00016309447,"MEAN_MOTION_DOT":0.00005312,"MEAN_MOTION_DDOT":0},{"OBJECT_NAME":"SKYSAT-C12","OBJECT_ID":"2018-099AR","EPOCH":"2026-07-14T22:20:47.032224","CLASSIFICATION_TYPE":"U","MEAN_MOTION":15.49780752,"ECCENTRICITY":0.00053662,"INCLINATION":96.9251,"RA_OF_ASC_NODE":218.0668,"ARG_OF_PERICENTER":70.8849,"MEAN_ANOMALY":289.2984,"EPHEMERIS_TYPE":0,"NORAD_CAT_ID":43797,"ELEMENT_SET_NO":999,"REV_AT_EPOCH":42615,"BSTAR":0.00019893455,"MEAN_MOTION_DOT":0.00010982,"MEAN_MOTION_DDOT":0}]}
